{"type": "FeatureCollection", "features": [ {"type": "Feature", "properties": {"norad_id": 41556, "name": "ZIYUAN 3-02 (ZY 3-02)", "group": "resource", "lat": -8.381133533540147, "lon": 70.97464954904538, "alt_km": 512.2479297967693, "timestamp": "2025-12-21T20:41:07.643034+00:00", "meta": {"OBJECT_NAME": "ZIYUAN 3-02 (ZY 3-02)", "OBJECT_ID": "2016-033A", "EPOCH": "2025-12-21T14:24:27.418176", "MEAN_MOTION": 15.2117044, "ECCENTRICITY": 0.00111334, "INCLINATION": 97.4035, "RA_OF_ASC_NODE": 69.6198, "ARG_OF_PERICENTER": 212.9668, "MEAN_ANOMALY": 147.0875, "EPHEMERIS_TYPE": 0, "CLASSIFICATION_TYPE": "U", "NORAD_CAT_ID": 41556, "ELEMENT_SET_NO": 999, "REV_AT_EPOCH": 53098, "BSTAR": 0.00024173085, "MEAN_MOTION_DOT": 5.326e-05, "MEAN_MOTION_DDOT": 0}, "tle": {"line1": "1 41556U 16033A   25355.60031734  .00005326  00000+0  24173-3 0  9993", "line2": "2 41556  97.4035  69.6198 0011133 212.9668 147.0875 15.21170440530985"}}, "geometry": {"type": "Point", "coordinates": [70.97464954904538, -8.381133533540147]}}, {"type": "Feature", "properties": {"norad_id": 41599, "name": "CARTOSAT-2C", "group": "resource", "lat": -46.97093222762251, "lon": -135.06835356146274, "alt_km": 522.5377148647067, "timestamp": "2025-12-21T20:41:07.643044+00:00", "meta": {"OBJECT_NAME": "CARTOSAT-2C", "OBJECT_ID": "2016-040A", "EPOCH": "2025-12-21T14:56:42.851616", "MEAN_MOTION": 15.19192906, "ECCENTRICITY": 0.00110513, "INCLINATION": 97.4755, "RA_OF_ASC_NODE": 52.7815, "ARG_OF_PERICENTER": 35.2404, "MEAN_ANOMALY": 324.9559, "EPHEMERIS_TYPE": 0, "CLASSIFICATION_TYPE": "U", "NORAD_CAT_ID": 41599, "ELEMENT_SET_NO": 999, "REV_AT_EPOCH": 52675, "BSTAR": 0.00030192525, "MEAN_MOTION_DOT": 6.295e-05, "MEAN_MOTION_DDOT": 0}, "tle": {"line1": "1 41599U 16040A   25355.62271819  .00006295  00000+0  30193-3 0  9995", "line2": "2 41599  97.4755  52.7815 0011051  35.2404 324.9559 15.19192906526756"}}, "geometry": {"type": "Point", "coordinates": [-135.06835356146274, -46.97093222762251]}}, {"type": "Feature", "properties": {"norad_id": 41601, "name": "SKYSAT-C1", "group": "resource", "lat": 3.5127081980794284, "lon": 31.930574090118764, "alt_km": 469.40050226010135, "timestamp": "2025-12-21T20:41:07.643053+00:00", "meta": {"OBJECT_NAME": "SKYSAT-C1", "OBJECT_ID": "2016-040C", "EPOCH": "2025-12-21T01:52:04.162944", "MEAN_MOTION": 15.32727522, "ECCENTRICITY": 0.00014088, "INCLINATION": 96.9809, "RA_OF_ASC_NODE": 31.6216, "ARG_OF_PERICENTER": 345.105, "MEAN_ANOMALY": 15.0151, "EPHEMERIS_TYPE": 0, "CLASSIFICATION_TYPE": "U", "NORAD_CAT_ID": 41601, "ELEMENT_SET_NO": 999, "REV_AT_EPOCH": 53055, "BSTAR": 0.00019483176, "MEAN_MOTION_DOT": 6.086e-05, "MEAN_MOTION_DDOT": 0}, "tle": {"line1": "1 41601U 16040C   25355.07782596  .00006086  00000+0  19483-3 0  9994", "line2": "2 41601  96.9809  31.6216 0001408 345.1050  15.0151 15.32727522530552"}}, "geometry": {"type": "Point", "coordinates": [31.930574090118764, 3.5127081980794284]}}, {"type": "Feature", "properties": {"norad_id": 41603, "name": "LAPAN-A3", "group": "resource", "lat": 66.86703439854513, "lon": -169.84433540529318, "alt_km": 470.54584084242833, "timestamp": "2025-12-21T20:41:07.643063+00:00", "meta": {"OBJECT_NAME": "LAPAN-A3", "OBJECT_ID": "2016-040E", "EPOCH": "2025-12-21T13:55:32.876832", "MEAN_MOTION": 15.31617808, "ECCENTRICITY": 0.00088592, "INCLINATION": 97.1426, "RA_OF_ASC_NODE": 352.8149, "ARG_OF_PERICENTER": 297.8211, "MEAN_ANOMALY": 62.2133, "EPHEMERIS_TYPE": 0, "CLASSIFICATION_TYPE": "U", "NORAD_CAT_ID": 41603, "ELEMENT_SET_NO": 999, "REV_AT_EPOCH": 52761, "BSTAR": 0.00011479957, "MEAN_MOTION_DOT": 3.434e-05, "MEAN_MOTION_DDOT": 0}, "tle": {"line1": "1 41603U 16040E   25355.58024163  .00003434  00000+0  11480-3 0  9994", "line2": "2 41603  97.1426 352.8149 0008859 297.8211  62.2133 15.31617808527615"}}, "geometry": {"type": "Point", "coordinates": [-169.84433540529318, 66.86703439854513]}}, {"type": "Feature", "properties": {"norad_id": 41604, "name": "BIROS", "group": "resource", "lat": 79.09718182278692, "lon": -112.2074610229046, "alt_km": 284.1483523442821, "timestamp": "2025-12-21T20:41:07.643072+00:00", "meta": {"OBJECT_NAME": "BIROS", "OBJECT_ID": "2016-040F", "EPOCH": "2025-12-21T14:14:39.097248", "MEAN_MOTION": 15.9302995, "ECCENTRICITY": 0.0003656, "INCLINATION": 97.0687, "RA_OF_ASC_NODE": 27.4032, "ARG_OF_PERICENTER": 133.1607, "MEAN_ANOMALY": 226.9975, "EPHEMERIS_TYPE": 0, "CLASSIFICATION_TYPE": "U", "NORAD_CAT_ID": 41604, "ELEMENT_SET_NO": 999, "REV_AT_EPOCH": 53013, "BSTAR": 0.00059368863, "MEAN_MOTION_DOT": 0.00205583, "MEAN_MOTION_DDOT": 1.7814697e-05}, "tle": {"line1": "1 41604U 16040F   25355.59350807  .00205583  17815-4  59369-3 0  9997", "line2": "2 41604  97.0687  27.4032 0003656 133.1607 226.9975 15.93029950530138"}}, "geometry": {"type": "Point", "coordinates": [-112.2074610229046, 79.09718182278692]}}, {"type": "Feature", "properties": {"norad_id": 41727, "name": "GAOFEN-3", "group": "resource", "lat": -19.360338065043873, "lon": 178.3315698938464, "alt_km": 756.9951149873468, "timestamp": "2025-12-21T20:41:07.643081+00:00", "meta": {"OBJECT_NAME": "GAOFEN-3", "OBJECT_ID": "2016-049A", "EPOCH": "2025-12-21T14:46:05.966112", "MEAN_MOTION": 14.42215637, "ECCENTRICITY": 0.0001234, "INCLINATION": 98.4031, "RA_OF_ASC_NODE": 1.0661, "ARG_OF_PERICENTER": 56.227, "MEAN_ANOMALY": 303.9037, "EPHEMERIS_TYPE": 0, "CLASSIFICATION_TYPE": "U", "NORAD_CAT_ID": 41727, "ELEMENT_SET_NO": 999, "REV_AT_EPOCH": 49305, "BSTAR": 2.4336822e-05, "MEAN_MOTION_DOT": 3.7e-07, "MEAN_MOTION_DDOT": 0}, "tle": {"line1": "1 41727U 16049A   25355.61534683  .00000037  00000+0  24337-4 0  9999", "line2": "2 41727  98.4031   1.0661 0001234  56.2270 303.9037 14.42215637493055"}}, "geometry": {"type": "Point", "coordinates": [178.3315698938464, -19.360338065043873]}}, {"type": "Feature", "properties": {"norad_id": 41771, "name": "SKYSAT-C4", "group": "resource", "lat": -75.42901975549377, "lon": 172.68066445101138, "alt_km": 447.1223436158134, "timestamp": "2025-12-21T20:41:07.643090+00:00", "meta": {"OBJECT_NAME": "SKYSAT-C4", "OBJECT_ID": "2016-058B", "EPOCH": "2025-12-21T14:54:11.767392", "MEAN_MOTION": 15.42483467, "ECCENTRICITY": 0.00022742, "INCLINATION": 96.936, "RA_OF_ASC_NODE": 20.3773, "ARG_OF_PERICENTER": 127.7818, "MEAN_ANOMALY": 232.3637, "EPHEMERIS_TYPE": 0, "CLASSIFICATION_TYPE": "U", "NORAD_CAT_ID": 41771, "ELEMENT_SET_NO": 999, "REV_AT_EPOCH": 51804, "BSTAR": 0.00029306062, "MEAN_MOTION_DOT": 0.00012621, "MEAN_MOTION_DDOT": 0}, "tle": {"line1": "1 41771U 16058B   25355.62096953  .00012621  00000+0  29306-3 0  9994", "line2": "2 41771  96.9360  20.3773 0002274 127.7818 232.3637 15.42483467518044"}}, "geometry": {"type": "Point", "coordinates": [172.68066445101138, -75.42901975549377]}}, {"type": "Feature", "properties": {"norad_id": 41772, "name": "SKYSAT-C5", "group": "resource", "lat": -77.85792450491181, "lon": -176.02282653367683, "alt_km": 468.6376746785836, "timestamp": "2025-12-21T20:41:07.643099+00:00", "meta": {"OBJECT_NAME": "SKYSAT-C5", "OBJECT_ID": "2016-058C", "EPOCH": "2025-12-21T14:51:29.604096", "MEAN_MOTION": 15.34022446, "ECCENTRICITY": 0.00037969, "INCLINATION": 97.0743, "RA_OF_ASC_NODE": 38.9998, "ARG_OF_PERICENTER": 248.9964, "MEAN_ANOMALY": 111.0874, "EPHEMERIS_TYPE": 0, "CLASSIFICATION_TYPE": "U", "NORAD_CAT_ID": 41772, "ELEMENT_SET_NO": 999, "REV_AT_EPOCH": 51652, "BSTAR": 0.00022971944, "MEAN_MOTION_DOT": 7.489e-05, "MEAN_MOTION_DDOT": 0}, "tle": {"line1": "1 41772U 16058C   25355.61909264  .00007489  00000+0  22972-3 0  9990", "line2": "2 41772  97.0743  38.9998 0003796 248.9964 111.0874 15.34022446516528"}}, "geometry": {"type": "Point", "coordinates": [-176.02282653367683, -77.85792450491181]}}, {"type": "Feature", "properties": {"norad_id": 41773, "name": "SKYSAT-C2", "group": "resource", "lat": 17.526568202672255, "lon": 17.767368730576298, "alt_km": 452.0260646814804, "timestamp": "2025-12-21T20:41:07.643108+00:00", "meta": {"OBJECT_NAME": "SKYSAT-C2", "OBJECT_ID": "2016-058D", "EPOCH": "2025-12-21T14:21:38.666016", "MEAN_MOTION": 15.37454642, "ECCENTRICITY": 0.00032346, "INCLINATION": 97.0345, "RA_OF_ASC_NODE": 19.7499, "ARG_OF_PERICENTER": 8.9758, "MEAN_ANOMALY": 351.1544, "EPHEMERIS_TYPE": 0, "CLASSIFICATION_TYPE": "U", "NORAD_CAT_ID": 41773, "ELEMENT_SET_NO": 999, "REV_AT_EPOCH": 51772, "BSTAR": 0.00025431987, "MEAN_MOTION_DOT": 9.266e-05, "MEAN_MOTION_DDOT": 0}, "tle": {"line1": "1 41773U 16058D   25355.59836419  .00009266  00000+0  25432-3 0  9998", "line2": "2 41773  97.0345  19.7499 0003234   8.9758 351.1544 15.37454642517726"}}, "geometry": {"type": "Point", "coordinates": [17.767368730576298, 17.526568202672255]}}, {"type": "Feature", "properties": {"norad_id": 41774, "name": "SKYSAT-C3", "group": "resource", "lat": 79.3055410441394, "lon": -10.900855474753584, "alt_km": 423.6754489681098, "timestamp": "2025-12-21T20:41:07.643117+00:00", "meta": {"OBJECT_NAME": "SKYSAT-C3", "OBJECT_ID": "2016-058E", "EPOCH": "2025-12-21T14:06:49.025088", "MEAN_MOTION": 15.44688941, "ECCENTRICITY": 0.00020322, "INCLINATION": 96.9286, "RA_OF_ASC_NODE": 28.9231, "ARG_OF_PERICENTER": 107.3638, "MEAN_ANOMALY": 252.7834, "EPHEMERIS_TYPE": 0, "CLASSIFICATION_TYPE": "U", "NORAD_CAT_ID": 41774, "ELEMENT_SET_NO": 999, "REV_AT_EPOCH": 51862, "BSTAR": 0.00033448362, "MEAN_MOTION_DOT": 0.00015534, "MEAN_MOTION_DDOT": 0}, "tle": {"line1": "1 41774U 16058E   25355.58806742  .00015534  00000+0  33448-3 0  9995", "line2": "2 41774  96.9286  28.9231 0002032 107.3638 252.7834 15.44688941518628"}}, "geometry": {"type": "Point", "coordinates": [-10.900855474753584, 79.3055410441394]}}]}